NORAD_CAT_ID,OBJECT_NAME,OBJECT_TYPE,EPOCH,MEAN_MOTION,ECCENTRICITY,INCLINATION,RA_OF_ASC_NODE,ARG_OF_PERICENTER,MEAN_ANOMALY,BSTAR,MEAN_MOTION_DOT,MEAN_MOTION_DDOT,TLE_LINE0,TLE_LINE1,TLE_LINE2,SEMIMAJOR_AXIS,PERIOD,APOGEE,PERIGEE,DECAYED
52842.0,STARLINK-4046,PAYLOAD,2023-06-18 07:05:11,15.08838237,9.65e-05,53.2161,182.6311,82.8993,277.2109,-3.4847e-06,-3.43e-06,0.0,0 STARLINK-4046,1 52842U 22062N   23169.29526844 -.00000343  00000-0 -34847-5 0  9997,2 52842  53.2161 182.6311 0000965  82.8993 277.2109 15.08838237 56006,6917.886,95.438,540.418,539.083,0.0
52842.0,STARLINK-4046,PAYLOAD,2023-06-18 18:12:53,15.08837645,9.79e-05,53.2162,180.5495,81.9935,278.1168,-8.5527e-06,-4.24e-06,0.0,0 STARLINK-4046,1 52842U 22062N   23169.75894916 -.00000424  00000-0 -85527-5 0  9997,2 52842  53.2162 180.5495 0000979  81.9935 278.1168 15.08837645 55587,6917.888,95.438,540.43,539.075,0.0
52842.0,STARLINK-4046,PAYLOAD,2023-06-19 06:55:58,15.08836382,9.75e-05,53.2162,178.1705,81.9505,278.1597,1.9222e-05,1.8e-07,0.0,0 STARLINK-4046,1 52842U 22062N   23170.28887003  .00000018  00000-0  19222-4 0  9991,2 52842  53.2162 178.1705 0000975  81.9505 278.1597 15.08836382 55665,6917.891,95.438,540.431,539.082,0.0
52842.0,STARLINK-4046,PAYLOAD,2023-06-19 18:03:40,15.08838678,9.93e-05,53.2165,176.0889,81.8474,278.263,3.9617e-05,3.43e-06,0.0,0 STARLINK-4046,1 52842U 22062N   23170.75254853  .00000343  00000-0  39617-4 0  9995,2 52842  53.2165 176.0889 0000993  81.8474 278.2630 15.08838678 56224,6917.884,95.438,540.436,539.062,0.0
52842.0,STARLINK-4046,PAYLOAD,2023-06-20 06:46:45,15.08840735,9.84e-05,53.2162,173.7099,81.151,278.9593,7.0147e-05,8.29e-06,0.0,0 STARLINK-4046,1 52842U 22062N   23171.28246637  .00000829  00000-0  70147-4 0  9997,2 52842  53.2162 173.7099 0000984  81.1510 278.9593 15.08840735 55818,6917.878,95.438,540.424,539.062,0.0
52842.0,STARLINK-4046,PAYLOAD,2023-06-21 00:15:59,15.0884172,9.59e-05,53.2164,170.4392,77.8215,282.2884,8.1445e-05,1.009e-05,0.0,0 STARLINK-4046,1 52842U 22062N   23172.01110483  .00001009  00000-0  81445-4 0  9992,2 52842  53.2164 170.4392 0000959  77.8215 282.2884 15.08841720 56419,6917.875,95.437,540.404,539.077,0.0
52842.0,STARLINK-4046,PAYLOAD,2023-06-21 09:48:18,15.08843624,0.0001008,53.2159,168.6548,77.5744,282.5361,8.7035e-05,1.098e-05,0.0,0 STARLINK-4046,1 52842U 22062N   23172.40854298  .00001098  00000-0  87035-4 0  9993,2 52842  53.2159 168.6548 0001008  77.5744 282.5361 15.08843624 55984,6917.869,95.437,540.432,539.037,0.0
52842.0,STARLINK-4046,PAYLOAD,2023-06-22 00:06:47,15.08836121,0.0001112,53.2155,165.9777,80.5047,279.6071,-3.4165e-05,-8.31e-06,0.0,0 STARLINK-4046,1 52842U 22062N   23173.00471190 -.00000831  00000-0 -34165-4 0  9998,2 52842  53.2155 165.9777 0001112  80.5047 279.6071 15.08836121 56564,6917.892,95.438,540.527,538.988,0.0
52842.0,STARLINK-4046,PAYLOAD,2023-06-23 09:29:52,15.0884163,0.0001088,53.2162,159.7346,83.2423,276.8693,2.3072e-05,7.9e-07,0.0,0 STARLINK-4046,1 52842U 22062N   23174.39574804  .00000079  00000-0  23072-4 0  9994,2 52842  53.2162 159.7346 0001088  83.2423 276.8693 15.08841630 56778,6917.875,95.437,540.493,538.988,0.0
52842.0,STARLINK-4046,PAYLOAD,2023-06-24 07:45:17,15.08834845,0.0001089,53.2161,155.5715,82.8603,277.2513,6.1027e-05,6.83e-06,0.0,0 STARLINK-4046,1 52842U 22062N   23175.32311487  .00000683  00000-0  61027-4 0  9997,2 52842  53.2161 155.5715 0001089  82.8603 277.2513 15.08834845 56919,6917.896,95.438,540.515,539.008,0.0
52842.0,STARLINK-4046,PAYLOAD,2023-06-25 07:36:03,15.08845346,0.0001143,53.2161,151.111,86.4154,273.6968,9.0763e-05,1.157e-05,0.0,0 STARLINK-4046,1 52842U 22062N   23176.31670884  .00001157  00000-0  90763-4 0  9992,2 52842  53.2161 151.1110 0001143  86.4154 273.6968 15.08845346 57061,6917.864,95.437,540.52,538.938,0.0
52842.0,STARLINK-4046,PAYLOAD,2023-06-25 15:32:59,15.08842953,0.0001255,53.2167,149.6233,84.8506,275.263,-3.8465e-05,-9e-06,0.0,0 STARLINK-4046,1 52842U 22062N   23176.64791414 -.00000900  00000-0 -38465-4 0  9999,2 52842  53.2167 149.6233 0001255  84.8506 275.2630 15.08842953 57113,6917.871,95.437,540.605,538.868,0.0
52842.0,STARLINK-4046,PAYLOAD,2023-06-26 15:23:47,15.088285,0.0001206,53.2161,145.163,87.3568,272.7562,0.00017979,2.574e-05,0.0,0 STARLINK-4046,1 52842U 22062N   23177.64151978  .00002574  00000-0  17979-3 0  9998,2 52842  53.2161 145.1630 0001206  87.3568 272.7562 15.08828500 57265,6917.916,95.438,540.615,538.946,0.0
52842.0,STARLINK-4046,PAYLOAD,2023-06-27 07:17:38,15.08844069,0.0001156,53.2164,142.1892,93.8122,266.3002,3.1634e-07,-2.83e-06,0.0,0 STARLINK-4046,1 52842U 22062N   23178.30391427 -.00000283  00000-0  31634-6 0  9990,2 52842  53.2164 142.1892 0001156  93.8122 266.3002 15.08844069 57364,6917.868,95.437,540.533,538.933,0.0
52842.0,STARLINK-4046,PAYLOAD,2023-06-28 03:57:39,15.08836747,0.0001149,53.2157,138.3249,79.734,280.3782,4.7476e-05,4.68e-06,0.0,0 STARLINK-4046,1 52842U 22062N   23179.16503892  .00000468  00000-0  47476-4 0  9999,2 52842  53.2157 138.3249 0001149  79.7340 280.3782 15.08836747 57495,6917.89,95.438,540.55,538.96,0.0
52842.0,STARLINK-4046,PAYLOAD,2023-06-29 06:59:12,15.08843203,0.000114,53.2162,133.2695,80.5694,279.5427,6.066e-05,6.78e-06,0.0,0 STARLINK-4046,1 52842U 22062N   23180.29111490  .00000678  00000-0  60660-4 0  9997,2 52842  53.2162 133.2695 0001140  80.5694 279.5427 15.08843203 57663,6917.871,95.437,540.524,538.947,0.0
52842.0,STARLINK-4046,PAYLOAD,2023-06-30 13:11:32,15.08834515,0.0001171,53.2168,127.6192,79.8539,280.2585,-1.4903e-05,-5.25e-06,0.0,0 STARLINK-4046,1 52842U 22062N   23181.54968340 -.00000525  00000-0 -14903-4 0  9992,2 52842  53.2168 127.6192 0001171  79.8539 280.2585 15.08834515 57852,6917.897,95.438,540.572,538.952,0.0
52842.0,STARLINK-4046,PAYLOAD,2023-07-02 01:45:25,15.08838765,0.0001247,53.2175,120.7804,98.7984,261.3149,-1.5367e-05,-5.32e-06,0.0,0 STARLINK-4046,1 52842U 22062N   23183.07320613 -.00000532  00000-0 -15367-4 0  9990,2 52842  53.2175 120.7804 0001247  98.7984 261.3149 15.08838765 58085,6917.884,95.438,540.612,538.887,0.0
52842.0,STARLINK-4046,PAYLOAD,2023-07-03 04:46:57,15.08845999,0.0001232,53.2172,115.725,100.7392,259.3739,0.00013158,1.807e-05,0.0,0 STARLINK-4046,1 52842U 22062N   23184.19927819  .00001807  00000-0  13158-3 0  9994,2 52842  53.2172 115.7250 0001232 100.7392 259.3739 15.08845999 58250,6917.862,95.437,540.579,538.875,0.0
52842.0,STARLINK-4046,PAYLOAD,2023-07-03 12:43:54,15.08837756,0.0001299,53.2176,114.2385,93.4544,266.6597,4.9587e-05,5.01e-06,0.0,0 STARLINK-4046,1 52842U 22062N   23184.53048631  .00000501  00000-0  49587-4 0  9994,2 52842  53.2176 114.2385 0001299  93.4544 266.6597 15.08837756 58308,6917.887,95.438,540.651,538.854,0.0
52842.0,STARLINK-4046,PAYLOAD,2023-07-05 01:17:45,15.08846581,0.0001277,53.2175,107.3979,98.3134,261.8003,-1.3897e-05,-5.09e-06,0.0,0 STARLINK-4046,1 52842U 22062N   23186.05400391 -.00000509  00000-0 -13897-4 0  9993,2 52842  53.2175 107.3979 0001277  98.3134 261.8003 15.08846581 58534,6917.86,95.437,540.609,538.842,0.0
52842.0,STARLINK-4046,PAYLOAD,2023-07-06 01:08:33,15.08835548,0.0001302,53.2171,102.9375,94.7936,265.3205,3.1656e-05,2.16e-06,0.0,0 STARLINK-4046,1 52842U 22062N   23187.04760969  .00000216  00000-0  31656-4 0  9999,2 52842  53.2171 102.9375 0001302  94.7936 265.3205 15.08835548 58680,6917.894,95.438,540.66,538.858,0.0
52842.0,STARLINK-4046,PAYLOAD,2023-07-07 04:10:06,15.08847625,0.0001113,53.2172,97.8839,88.677,271.4349,5.1093e-05,5.26e-06,0.0,0 STARLINK-4046,1 52842U 22062N   23188.17368279  .00000526  00000-0  51093-4 0  9993,2 52842  53.2172  97.8839 0001113  88.6770 271.4349 15.08847625 58851,6917.857,95.437,540.492,538.952,0.0
52842.0,STARLINK-4046,PAYLOAD,2023-07-08 00:50:07,15.08843115,9.87e-05,53.217,94.0178,89.7628,270.3478,3.7881e-05,3.15e-06,0.0,0 STARLINK-4046,1 52842U 22062N   23189.03480686  .00000315  00000-0  37881-4 0  9991,2 52842  53.2170  94.0178 0000987  89.7628 270.3478 15.08843115 58981,6917.871,95.437,540.419,539.053,0.0
52842.0,STARLINK-4046,PAYLOAD,2023-07-09 02:16:18,15.0883323,0.0001265,53.2184,89.2625,89.6646,270.4491,-4.5096e-05,-1.005e-05,0.0,0 STARLINK-4046,1 52842U 22062N   23190.09465948 -.00001005  00000-0 -45096-4 0  9999,2 52842  53.2184  89.2625 0001265  89.6646 270.4491 15.08833230 59140,6917.901,95.438,540.641,538.891,0.0
52842.0,STARLINK-4046,PAYLOAD,2023-07-09 18:10:09,15.08840127,0.0001137,53.2181,86.2874,93.0318,267.0804,5.5395e-06,-2e-06,0.0,0 STARLINK-4046,1 52842U 22062N   23190.75705615 -.00000200  00000-0  55395-5 0  9999,2 52842  53.2181  86.2874 0001137  93.0318 267.0804 15.08840127 59247,6917.88,95.438,540.532,538.958,0.0
52842.0,STARLINK-4046,PAYLOAD,2023-07-11 01:57:52,15.0884183,0.0001237,53.2175,80.3395,83.7258,276.3875,0.00012497,1.702e-05,0.0,0 STARLINK-4046,1 52842U 22062N   23192.08185394  .00001702  00000-0  12497-3 0  9994,2 52842  53.2175  80.3395 0001237  83.7258 276.3875 15.08841830 59448,6917.875,95.437,540.596,538.884,0.0
52842.0,STARLINK-4046,PAYLOAD,2023-07-11 22:37:53,15.08841452,0.0001208,53.2176,76.4737,85.2335,274.8795,5.7025e-05,6.2e-06,0.0,0 STARLINK-4046,1 52842U 22062N   23192.94297560  .00000620  00000-0  57025-4 0  9993,2 52842  53.2176  76.4737 0001208  85.2335 274.8795 15.08841452 59574,6917.876,95.437,540.577,538.905,0.0
52842.0,STARLINK-4046,PAYLOAD,2023-07-13 15:57:54,15.08844793,0.0001386,53.2182,68.7433,80.1408,279.9741,-5.4709e-05,-1.159e-05,0.0,0 STARLINK-4046,1 52842U 22062N   23194.66521841 -.00001159  00000-0 -54709-4 0  9992,2 52842  53.2182  68.7433 0001386  80.1408 279.9741 15.08844793 59837,6917.866,95.437,540.69,538.772,0.0
52842.0,STARLINK-4046,PAYLOAD,2023-07-14 22:10:13,15.08848072,0.0001314,53.2188,63.094,93.7194,266.3948,0.00011913,1.609e-05,0.0,0 STARLINK-4046,1 52842U 22062N   23195.92377041  .00001609  00000-0  11913-3 0  9990,2 52842  53.2188  63.0940 0001314  93.7194 266.3948 15.08848072 60023,6917.856,95.437,540.63,538.812,0.0
